1 45089U 20006AX  23281.89486237  .00000984  00000-0  84989-4 0  9990
2 45089  53.0523 249.7269 0001758  91.9517 268.1673 15.06395210203974
1 45089U 20006AX  23282.09390151 -.00001279  00000-0 -66973-4 0  9995
2 45089  53.0520 248.8329 0001354  95.3401 264.7742 15.06391118203994
1 45089U 20006AX  23282.29294632  .00022074  00000-0  14968-2 0  9993
2 45089  53.0519 247.9395 0001362  90.6349 269.4795 15.06384848204031
1 45089U 20006AX  23282.62468140  .00020957  00000-0  14217-2 0  9992
2 45089  53.0518 246.4501 0001360  92.4687 267.6457 15.06398733204084
1 45089U 20006AX  23283.08910451  .00024009  00000-0  16242-2 0  9992
2 45089  53.0517 244.3651 0001378  93.4312 266.6835 15.06422573204147
1 45089U 20006AX  23283.42083203  .00019997  00000-0  13563-2 0  9999
2 45089  53.0513 242.8751 0001396  93.2463 266.8686 15.06433664204208
1 45089U 20006AX  23283.61988356 -.00011362  00000-0 -74546-3 0  9992
2 45089  53.0520 241.9825 0001566  71.2674 288.8485 15.06381741204228
1 45089U 20006AX  23283.88527386 -.00006703  00000-0 -43174-3 0  9999
2 45089  53.0520 240.7903 0001441  79.7882 280.3270 15.06380812204270
1 45089U 20006AX  23284.15066803  .00017252  00000-0  11751-2 0  9996
2 45089  53.0522 239.5992 0001444  77.3019 282.8131 15.06373464204318
1 45089U 20006AX  23284.15066803  .00017252  00000-0  11751-2 0  9996
2 45089  53.0522 239.5992 0001444  77.3019 282.8131 15.06373464204307
1 45089U 20006AX  23285.27856558  .00023289  00000-0  15763-2 0  9998
2 45089  53.0526 234.5364 0001480  73.8330 286.2822 15.06421790204486
1 45089U 20006AX  23285.27856558  .00023289  00000-0  15763-2 0  9998
2 45089  53.0526 234.5364 0001480  73.8330 286.2822 15.06421790204475
1 45089U 20006AX  23286.14107864  .00017799  00000-0  12107-2 0  9992
2 45089  53.0532 230.6640 0001404  86.0912 274.0237 15.06401934204602
1 45089U 20006AX  23286.53915575  .00017819  00000-0  12115-2 0  9993
2 45089  53.0533 228.8763 0001408  88.2792 271.8358 15.06418351204679
1 45089U 20006AX  23286.87088262  .00023320  00000-0  15777-2 0  9995
2 45089  53.0538 227.3863 0001363  85.5576 274.5568 15.06437248204724
1 45089U 20006AX  23287.20260537  .00023411  00000-0  15830-2 0  9991
2 45089  53.0534 225.8979 0001355  88.3837 271.7307 15.06455063204762
1 45089U 20006AX  23287.26894968  .00022383  00000-0  15144-2 0  9993
2 45089  53.0536 225.5998 0001354  86.6399 273.4745 15.06457670204788
1 45089U 20006AX  23288.13148125  .00013665  00000-0  93553-3 0  9991
2 45089  53.0529 221.7286 0001356  69.5977 290.5157 15.06359168204906
1 45089U 20006AX  23288.52957183  .00021042  00000-0  14285-2 0  9998
2 45089  53.0528 219.9415 0001349  67.9198 292.1934 15.06369090204970
1 45089U 20006AX  23289.19304602  .00023101  00000-0  15647-2 0  9995
2 45089  53.0527 216.9637 0001376  68.5622 291.5513 15.06398561205074
1 45089U 20006AX  23289.19304602  .00023101  00000-0  15647-2 0  9995
2 45089  53.0527 216.9637 0001376  68.5622 291.5513 15.06398561205063
1 45089U 20006AX  23290.51997358  .00016715  00000-0  11376-2 0  9997
2 45089  53.0534 211.0023 0001156  98.5084 261.6036 15.06425462205279
1 45089U 20006AX  23290.51997358  .00016715  00000-0  11376-2 0  9997
2 45089  53.0534 211.0023 0001156  98.5084 261.6036 15.06425462205268
1 45089U 20006AX  23291.18342205  .00016858  00000-0  11463-2 0  9991
2 45089  53.0532 208.0260 0001457  70.1470 289.9676 15.06453123205374
1 45089U 20006AX  23291.18342205  .00016858  00000-0  11463-2 0  9991
2 45089  53.0532 208.0260 0001457  70.1470 289.9676 15.06453123205363
1 45089U 20006AX  23292.17863212  .00000488  00000-0  51662-4 0  9996
2 45089  53.0550 203.5570 0001282  77.7114 282.4019 15.06392987205517
1 45089U 20006AX  23292.24497746 -.00001887  00000-0 -10779-3 0  9998
2 45089  53.0526 203.2619 0001263  81.1803 278.9329 15.06401159205532
1 45089U 20006AX  23293.04113189  .00017143  00000-0  11661-2 0  9993
2 45089  53.0524 199.6880 0001197  86.9619 273.1507 15.06427891205651
1 45089U 20006AX  23293.04113189  .00017143  00000-0  11661-2 0  9993
2 45089  53.0524 199.6880 0001197  86.9619 273.1507 15.06427891205640
1 45089U 20006AX  23293.70460965 -.00001521  00000-0 -83230-4 0  9991
2 45089  53.0526 196.7091 0001418  78.2034 281.9114 15.06392866205740
1 45089U 20006AX  23293.90365458 -.00010899  00000-0 -71449-3 0  9990
2 45089  53.0521 195.8160 0001603  87.2526 272.8646 15.06369996205785
1 45089U 20006AX  23294.03635567  .00018871  00000-0  12840-2 0  9991
2 45089  53.0520 195.2209 0001619  85.9938 274.1235 15.06353737205797
1 45089U 20006AX  23294.43444414  .00017504  00000-0  11919-2 0  9992
2 45089  53.0524 193.4332 0001635  90.0941 270.0235 15.06375117205866
1 45089U 20006AX  23294.89887851  .00015972  00000-0  10892-2 0  9994
2 45089  53.0523 191.3484 0001684  90.2721 269.8461 15.06384289205937
1 45089U 20006AX  23295.09791932  .00014744  00000-0  10068-2 0  9992
2 45089  53.0523 190.4553 0001730  88.1596 271.9591 15.06394354205956
1 45089U 20006AX  23295.42965182  .00012138  00000-0  83226-3 0  9991
2 45089  53.0521 188.9659 0001692  91.1463 268.9719 15.06404988206018
1 45089U 20006AX  23295.96042541  .00009364  00000-0  64651-3 0  9993
2 45089  53.0530 186.5829 0001848  90.7324 269.3876 15.06409496206091
1 45089U 20006AX  23296.02677217  .00008060  00000-0  55926-3 0  9992
2 45089  53.0528 186.2850 0001796  91.1153 269.0042 15.06408075206090
1 45089U 20006AX  23296.42485280  .00005164  00000-0  36526-3 0  9990
2 45089  53.0528 184.4981 0001798  90.9214 269.1981 15.06405021206150
1 45089U 20006AX  23296.95562348  .00006952  00000-0  48500-3 0  9990
2 45089  53.0526 182.1153 0001804  91.1840 268.9356 15.06413386206246
1 45089U 20006AX  23297.42005111  .00002485  00000-0  18565-3 0  9998
2 45089  53.0517 180.0300 0001793  91.6365 268.4830 15.06404921206316
1 45089U 20006AX  23297.42005111  .00002485  00000-0  18565-3 0  9998
2 45089  53.0517 180.0300 0001793  91.6365 268.4830 15.06404921206305
1 45089U 20006AX  23297.95082896 -.00000056  00000-0  15153-4 0  9995
2 45089  53.0527 177.6491 0001872  88.9941 271.1262 15.06398811206384
1 45089U 20006AX  23298.94601935  .00001596  00000-0  12600-3 0  9998
2 45089  53.0537 173.1810 0001995  91.0763 269.0455 15.06415481206545
1 45089U 20006AX  23298.94601935  .00001596  00000-0  12600-3 0  9998
2 45089  53.0537 173.1810 0001995  91.0763 269.0455 15.06415481206534
1 45089U 20006AX  23299.87487938  .00000988  00000-0  85201-4 0  9998
2 45089  53.0532 169.0094 0001915  88.9596 271.1612 15.06400339206689
1 45089U 20006AX  23299.94122568  .00001827  00000-0  14152-3 0  9990
2 45089  53.0532 168.7122 0001899  87.8874 272.2333 15.06403095206689
1 45089U 20006AX  23300.33930224  .00001981  00000-0  15181-3 0  9996
2 45089  53.0535 166.9248 0001875  86.9509 273.1694 15.06409171206759
1 45089U 20006AX  23300.87006744  .00002387  00000-0  17899-3 0  9995
2 45089  53.0524 164.5415 0001784  90.2837 269.8357 15.06419179206823
1 45089U 20006AX  23300.93641512  .00003255  00000-0  23718-3 0  9992
2 45089  53.0520 164.2434 0001782  87.0110 273.1082 15.06417764206846
1 45089U 20006AX  23301.33449813  .00000803  00000-0  72837-4 0  9990
2 45089  53.0520 162.4553 0002173  83.5035 276.6201 15.06406012206890
1 45089U 20006AX  23301.59988828  .00001645  00000-0  12932-3 0  9996
2 45089  53.0513 161.2652 0002661  82.4889 277.6402 15.06406834206948
1 45089U 20006AX  23301.86527954 -.00003017  00000-0 -18374-3 0  9998
2 45089  53.0504 160.0732 0002095  81.7259 278.3968 15.06391561206976
1 45089U 20006AX  23301.93162984 -.00001199  00000-0 -61612-4 0  9997
2 45089  53.0528 159.7772 0002146  66.9281 293.1934 15.06393312206994
1 45089U 20006AX  23302.32970870 -.00000691  00000-0 -27481-4 0  9994
2 45089  53.0511 157.9896 0001938  86.4416 273.6794 15.06396437207054
1 45089U 20006AX  23302.86048157  .00000282  00000-0  37816-4 0  9994
2 45089  53.0523 155.6054 0001812  84.1907 275.9288 15.06400573207127
1 45089U 20006AX  23303.85569176  .00002357  00000-0  17711-3 0  9999
2 45089  53.0518 151.1385 0001719  86.3999 273.7187 15.06393140207282
1 45089U 20006AX  23303.85569176  .00002357  00000-0  17711-3 0  9999
2 45089  53.0518 151.1385 0001719  86.3999 273.7187 15.06393140207271
1 45089U 20006AX  23304.85089193  .00001938  00000-0  14899-3 0  9994
2 45089  53.0519 146.6710 0001724  87.2245 272.8941 15.06400464207437
1 45089U 20006AX  23304.98358461  .00002299  00000-0  17316-3 0  9993
2 45089  53.0518 146.0756 0001758  88.3941 271.7250 15.06402075207444
1 45089U 20006AX  23305.24897388  .00001124  00000-0  94326-4 0  9992
2 45089  53.0518 144.8839 0001752  88.0965 272.0224 15.06398097207497
1 45089U 20006AX  23305.84609762  .00001475  00000-0  11791-3 0  9998
2 45089  53.0531 142.2031 0001708  88.9401 271.1784 15.06395575207582
1 45089U 20006AX  23305.84609762  .00001475  00000-0  11791-3 0  9998
2 45089  53.0531 142.2031 0001708  88.9401 271.1784 15.06395575207571
1 45089U 20006AX  23306.50956164  .00001442  00000-0  11568-3 0  9999
2 45089  53.0534 139.2243 0001684  88.1048 272.0134 15.06402086207684
1 45089U 20006AX  23306.84129107  .00001593  00000-0  12582-3 0  9999
2 45089  53.0533 137.7351 0001659  88.5391 271.5788 15.06407261207727
1 45089U 20006AX  23306.90763737  .00001621  00000-0  12767-3 0  9996
2 45089  53.0533 137.4373 0001661  88.5149 271.6030 15.06407621207745
1 45089U 20006AX  23307.17303755 -.00000590  00000-0 -20692-4 0  9999
2 45089  53.0532 136.2460 0001726  81.9955 278.1230 15.06391873207770
1 45089U 20006AX  23307.57112059  .00000301  00000-0  39087-4 0  9994
2 45089  53.0530 134.4588 0001646  87.0345 273.0833 15.06389716207844
1 45089U 20006AX  23307.90284883 -.00000292  00000-0 -72758-6 0  9991
2 45089  53.0525 132.9695 0001669  86.1646 273.9534 15.06394181207893
1 45089U 20006AX  23307.96919546  .00000044  00000-0  21852-4 0  9998
2 45089  53.0525 132.6717 0001663  86.3198 273.7981 15.06395264207890
1 45089U 20006AX  23308.49997089  .00000884  00000-0  78255-4 0  9996
2 45089  53.0523 130.2889 0001651  87.3673 272.7504 15.06395461207987
